NUSAT-1 (FRESCO)        
1 41557U 16033B   22194.59367845  .00010742  00000+0  31628-3 0  9996
2 41557  97.3897 292.3450 0009074 284.4229 199.9186 15.35196800341394
BEESAT-4                
1 41619U 16040W   22194.57849631  .00014802  00000+0  48441-3 0  9991
2 41619  97.2148 244.5168 0009869  35.0064 325.1825 15.31734413324720
CAS-2T & KS-1Q          
1 41847U 16066G   22194.42579238  .00001310  00000+0  20420-3 0  9996
2 41847  98.5498 259.0677 0364681 132.0970 231.1842 14.38631245298080
NAYIF-1 (EO-88)         
1 42017U 17008BX  22194.44481319  .00018180  00000+0  53127-3 0  9990
2 42017  97.2680 260.1908 0006319 140.8259 219.3444 15.35325412301060
ZHUHAI-1 02 (CAS-4B)    
1 42759U 17034B   22194.48209795  .00002025  00000+0  12854-3 0  9995
2 42759  43.0159 189.2137 0007787  88.9333  48.8121 15.12047605280291
ZHUHAI-1 01 (CAS-4A)    
1 42761U 17034D   22194.44907123  .00002305  00000+0  14416-3 0  9991
2 42761  43.0154 188.1641 0008036  92.3942  38.6712 15.12135295280296
MAX VALIER SAT          
1 42778U 17036P   22194.53246851  .00009208  00000+0  34593-3 0  9992
2 42778  97.2030 234.7402 0009347 224.8433 135.2052 15.27352957280882
RADFXSAT (FOX-1B)       
1 43017U 17073E   22194.44378740  .00004706  00000+0  35229-3 0  9998
2 43017  97.6728  87.5728 0249752 102.6480 260.2780 14.81532643250967
FOX-1D (AO-92)          
1 43137U 18004AC  22194.45927201  .00010416  00000+0  36322-3 0  9999
2 43137  97.3686 269.3868 0005885 266.6364  93.4203 15.29798435250326
DIWATA-2B               
1 43678U 18084H   22194.60166713  .00000947  00000+0  98666-4 0  9995
2 43678  97.9737 328.1781 0009614 191.3645 168.7387 14.92207362201752
ES'HAIL 2               
1 43700U 18090A   22194.48454691  .00000140  00000+0  00000+0 0  9994
2 43700   0.0225  41.7927 0001573  98.8411 350.9133  1.00270998 13297
FOX-1CLIFF (AO-95)      
1 43770U 18099N   22194.40012773  .00003477  00000+0  31020-3 0  9999
2 43770  97.6200 260.0761 0014206 181.0988 179.0204 14.96539398196890
ITASAT 1                
1 43786U 18099AE  22194.45784524  .00002611  00000+0  23336-3 0  9991
2 43786  97.6220 261.0651 0015168 175.1908 184.9462 14.96667741196943
JY1SAT (JO-97)          
1 43803U 18099AX  22194.46687269  .00003731  00000+0  32692-3 0  9999
2 43803  97.6186 260.8360 0015081 172.8164 187.3277 14.97188593196967
UWE-4                   
1 43880U 18111E   22194.51449234  .00002198  00000+0  18959-3 0  9999
2 43880  97.6672 100.3728 0010339 230.7758 129.2547 14.98276884193607
NEXUS (FO-99)           
1 43937U 19003F   22194.31390264  .00014571  00000+0  48170-3 0  9995
2 43937  97.1283 226.6635 0022006  64.9507 295.4016 15.31218430193939
PSAT2 (NO-104)          
1 44354U 19036R   22194.55918725  .00045653 -60636-5  38268-3 0  9999
2 44354  28.5273 356.9691 0220115 265.7441  91.7978 15.42555575168716
JAISAT-1                
1 44419U 19038F   22193.95590395  .00010285  00000+0  51142-3 0  9996
2 44419  97.6363 164.2902 0020650  47.6194 312.6783 15.17644250166925
DUCHIFAT-3              
1 44854U 19089C   22194.44765602  .00003012  00000+0  23618-3 0  9992
2 44854  36.9677 306.2265 0007710  63.1867 296.9698 15.01217880141845
CAS-6 (TO-108)          
1 44881U 19093C   22194.50987441  .00000463  00000+0  65262-4 0  9990
2 44881  97.8924 273.3455 0016389 100.1528 260.1541 14.81753140138633
RS-44 & BREEZE-KM R/B   
1 44909U 19096E   22194.85069975  .00000029  00000+0  78705-4 0  9999
2 44909  82.5220 212.7349 0216391 257.9046  99.7736 12.79714373118937
ORBITAL FACTORY 2 (OF-2)
1 45113U 19071C   22194.54786527  .00027874  00000+0  55674-3 0  9991
2 45113  51.6388 290.8690 0009627 273.2933  86.6953 15.46555991137417
HUSKYSAT-1 (HO-107)     
1 45119U 19071J   22194.57026240  .00022999  00000+0  47816-3 0  9991
2 45119  51.6386 290.9916 0009258 269.1187  90.8739 15.45502120137401
BY70-2                  
1 45857U 20042B   22194.45665067  .00005759  00000+0  76572-3 0  9999
2 45857  97.9545 271.0519 0011057  41.6876 318.5236 14.80076717109303
SALSAT                  
1 46495U 20068K   22194.49967056  .00002103  00000+0  15392-3 0  9996
2 46495  97.7313 135.8109 0016244 182.6609 177.4533 15.04605109 98105
BY70-3                  
1 46839U 20079N   22194.52642292  .00019781  00000+0  45131-3 0  9990
2 46839  97.1977 266.2926 0004465 216.3532 267.5322 15.42916475 94268
RADFXSAT-2 (AO-109)     
1 47311U 21002C   22192.78577801  .00006201  00000+0  25159-3 0  9993
2 47311  60.6857 270.6287 0020945 356.3559   3.7374 15.25595301 82176
UVSQ-SAT                
1 47438U 21006AB  22194.42128001  .00006559  00000+0  34488-3 0  9995
2 47438  97.4359 252.8997 0012093 176.5613 183.5705 15.15938702 81213
DIY-1 (ARDUIQUBE)       
1 47963U 21022AH  22194.45617520  .00018025  00000+0  98712-3 0  9999
2 47963  97.5310  95.5219 0018603  47.8087 312.4720 15.14129638 70881
XW-3 (CAS-9)            
1 50466U 21131B   22194.53410809  .00000152  00000+0  64313-4 0  9995
2 50466  98.5804 271.7756 0005778  78.5871 281.5965 14.38507476 28668
TEVEL-3                 
1 50988U 22002E   22194.45636956  .00006021  00000+0  32852-3 0  9999
2 50988  97.4801 261.0054 0008666 344.1366  71.0111 15.14692571 27351
TEVEL-8                 
1 50989U 22002F   22194.45447712  .00005906  00000+0  32278-3 0  9993
2 50989  97.4821 261.0250 0008665 342.6182  29.5391 15.14639636 27351
TEVEL-5                 
1 50998U 22002Q   22194.48188381  .00005991  00000+0  32240-3 0  9993
2 50998  97.4799 261.1367 0010152 337.4874 148.0399 15.15172394 27369
TEVEL-6                 
1 50999U 22002R   22194.48181684  .00005970  00000+0  32128-3 0  9995
2 50999  97.4794 261.1351 0009971 337.2820 150.1695 15.15176916 27361
TEVEL-1                 
1 51013U 22002AF  22194.45927351  .00005944  00000+0  32460-3 0  9999
2 51013  97.4805 260.9914 0008589 343.3503  73.3654 15.14667414 27351
TEVEL-7                 
1 51062U 22002CG  22194.46406546  .00005866  00000+0  32070-3 0  9992
2 51062  97.4818 261.0228 0008706 342.2852  74.1368 15.14629738 27353
TEVEL-4                 
1 51063U 22002CH  22194.54002981  .00005849  00000+0  31988-3 0  9995
2 51063  97.4820 261.0950 0008593 342.1639 124.9223 15.14622368 27362
TEVEL-2                 
1 51069U 22002CP  22194.59897106  .00006036  00000+0  32940-3 0  9995
2 51069  97.4802 261.1359 0008579 343.0978 122.9927 15.14686910 27375
